ONEWEB-0414             
1 50491U 21132Y   24221.21403646  .00000111  00000+0  24863-3 0  9993
2 50491  87.9121 110.4242 0002085  71.1144 289.0214 13.18687288132279
ONEWEB-0417             
1 50492U 21132Z   24221.22193533  .00000092  00000+0  20017-3 0  9991
2 50492  87.9127 110.4292 0002102  81.8810 278.2560 13.18687493132259
ONEWEB-0418             
1 50493U 21132AA  24221.15541576  .00000055  00000+0  10686-3 0  9998
2 50493  87.9125 110.4434 0002309  84.9110 275.2286 13.18687743132308
ONEWEB-0419             
1 50494U 21132AB  24221.17294335  .00000132  00000+0  30263-3 0  9998
2 50494  87.9117 110.4555 0001900  88.0359 272.0990 13.18683980132227
ONEWEB-0420             
1 50495U 21132AC  24221.59499854  .00000077  00000+0  16363-3 0  9991
2 50495  87.9119 110.3800 0001653  69.0727 291.0582 13.18687915132270
ONEWEB-0421             
1 50496U 21132AD  24221.20928276  .00000117  00000+0  26281-3 0  9990
2 50496  87.9128 110.4267 0002128  66.7640 293.3716 13.18687335132264
ONEWEB-0424             
1 50497U 21132AE  24221.24407136  .00000131  00000+0  29950-3 0  9994
2 50497  87.9123 110.4232 0001791  94.0804 266.0532 13.18685908132293
ONEWEB-0426             
1 50498U 21132AF  24221.20613365  .00000074  00000+0  15378-3 0  9999
2 50498  87.9121 110.4462 0002592  75.5278 284.6142 13.18686918132235
